[{"OBJECT_NAME":"HORS 2","OBJECT_ID":"2023-091AG","EPOCH":"2026-03-09T22:11:34.810944","MEAN_MOTION":15.2928008,"ECCENTRICITY":0.00098173,"INCLINATION":97.5195,"RA_OF_ASC_NODE":134.7443,"ARG_OF_PERICENTER":79.3164,"MEAN_ANOMALY":280.9181,"EPHEMERIS_TYPE":0,"CLASSIFICATION_TYPE":"U","NORAD_CAT_ID":57196,"ELEMENT_SET_NO":999,"REV_AT_EPOCH":14934,"BSTAR":0.00059338338,"MEAN_MOTION_DOT":0.00016821,"MEAN_MOTION_DDOT":0},{"OBJECT_NAME":"STARLINK-34109","OBJECT_ID":"2025-092D","EPOCH":"2026-03-09T14:25:15.233664","MEAN_MOTION":15.27606412,"ECCENTRICITY":0.0001529,"INCLINATION":43.0043,"RA_OF_ASC_NODE":172.8325,"ARG_OF_PERICENTER":300.8176,"MEAN_ANOMALY":59.2525,"EPHEMERIS_TYPE":0,"CLASSIFICATION_TYPE":"U","NORAD_CAT_ID":63807,"ELEMENT_SET_NO":999,"REV_AT_EPOCH":4860,"BSTAR":0.00085823,"MEAN_MOTION_DOT":0.00023449,"MEAN_MOTION_DDOT":0}]
